CCSDS_OMM_VERS = 2.0
CREATION_DATE  = 
ORIGINATOR     = 

OBJECT_NAME    = IDEFIX & ARIANE 42P R/B
OBJECT_ID      = 2002-021B
CENTER_NAME    = EARTH
REF_FRAME      = TEME
TIME_SYSTEM    = UTC
MEAN_ELEMENT_THEORY = SGP/SGP4

EPOCH          = 2026-02-06T15:51:43.713504
MEAN_MOTION    = 14.31003452
ECCENTRICITY   = .00107186
INCLINATION    = 98.5840
RA_OF_ASC_NODE = 336.6444
ARG_OF_PERICENTER = 280.7661
MEAN_ANOMALY   = 79.2315

EPHEMERIS_TYPE = 0
CLASSIFICATION_TYPE = U
NORAD_CAT_ID   = 27422
ELEMENT_SET_NO = 999
REV_AT_EPOCH   = 23958
BSTAR          = .18285812E-3
MEAN_MOTION_DOT = .437E-5
MEAN_MOTION_DDOT = 0

CCSDS_OMM_VERS = 2.0
CREATION_DATE  = 
ORIGINATOR     = 

OBJECT_NAME    = AQUA
OBJECT_ID      = 2002-022A
CENTER_NAME    = EARTH
REF_FRAME      = TEME
TIME_SYSTEM    = UTC
MEAN_ELEMENT_THEORY = SGP/SGP4

EPOCH          = 2026-02-06T14:53:51.096192
MEAN_MOTION    = 14.61898931
ECCENTRICITY   = .00015867
INCLINATION    = 98.4120
RA_OF_ASC_NODE = 4.4338
ARG_OF_PERICENTER = 54.7719
MEAN_ANOMALY   = 54.8969

EPHEMERIS_TYPE = 0
CLASSIFICATION_TYPE = U
NORAD_CAT_ID   = 27424
ELEMENT_SET_NO = 999
REV_AT_EPOCH   = 26419
BSTAR          = .31664627E-3
MEAN_MOTION_DOT = .1535E-4
MEAN_MOTION_DDOT = 0

CCSDS_OMM_VERS = 2.0
CREATION_DATE  = 
ORIGINATOR     = 

OBJECT_NAME    = CZ-4B R/B
OBJECT_ID      = 2002-024C
CENTER_NAME    = EARTH
REF_FRAME      = TEME
TIME_SYSTEM    = UTC
MEAN_ELEMENT_THEORY = SGP/SGP4

EPOCH          = 2026-02-06T16:14:43.701216
MEAN_MOTION    = 14.14542060
ECCENTRICITY   = .00511267
INCLINATION    = 98.8906
RA_OF_ASC_NODE = 91.2295
ARG_OF_PERICENTER = 110.8267
MEAN_ANOMALY   = 0.9214

EPHEMERIS_TYPE = 0
CLASSIFICATION_TYPE = U
NORAD_CAT_ID   = 27432
ELEMENT_SET_NO = 999
REV_AT_EPOCH   = 22485
BSTAR          = .51554048E-4
MEAN_MOTION_DOT = .56E-6
MEAN_MOTION_DDOT = 0

CCSDS_OMM_VERS = 2.0
CREATION_DATE  = 
ORIGINATOR     = 

OBJECT_NAME    = MIDORI II (ADEOS-II)
OBJECT_ID      = 2002-056A
CENTER_NAME    = EARTH
REF_FRAME      = TEME
TIME_SYSTEM    = UTC
MEAN_ELEMENT_THEORY = SGP/SGP4

EPOCH          = 2026-02-06T12:16:17.200416
MEAN_MOTION    = 14.29261081
ECCENTRICITY   = .00021582
INCLINATION    = 98.7716
RA_OF_ASC_NODE = 355.7851
ARG_OF_PERICENTER = 86.6875
MEAN_ANOMALY   = 273.4553

EPHEMERIS_TYPE = 0
CLASSIFICATION_TYPE = U
NORAD_CAT_ID   = 27597
ELEMENT_SET_NO = 999
REV_AT_EPOCH   = 20584
BSTAR          = .20715869E-3
MEAN_MOTION_DOT = .481E-5
MEAN_MOTION_DDOT = 0

CCSDS_OMM_VERS = 2.0
CREATION_DATE  = 
ORIGINATOR     = 

OBJECT_NAME    = H-2A R/B
OBJECT_ID      = 2002-056E
CENTER_NAME    = EARTH
REF_FRAME      = TEME
TIME_SYSTEM    = UTC
MEAN_ELEMENT_THEORY = SGP/SGP4

EPOCH          = 2026-02-06T12:31:51.103200
MEAN_MOTION    = 14.33738209
ECCENTRICITY   = .00690129
INCLINATION    = 98.3147
RA_OF_ASC_NODE = 359.0853
ARG_OF_PERICENTER = 254.3260
MEAN_ANOMALY   = 217.3077

EPHEMERIS_TYPE = 0
CLASSIFICATION_TYPE = U
NORAD_CAT_ID   = 27601
ELEMENT_SET_NO = 999
REV_AT_EPOCH   = 20964
BSTAR          = .17686476E-3
MEAN_MOTION_DOT = .462E-5
MEAN_MOTION_DDOT = 0

CCSDS_OMM_VERS = 2.0
CREATION_DATE  = 
ORIGINATOR     = 

OBJECT_NAME    = CZ-4B R/B
OBJECT_ID      = 2003-049C
CENTER_NAME    = EARTH
REF_FRAME      = TEME
TIME_SYSTEM    = UTC
MEAN_ELEMENT_THEORY = SGP/SGP4

EPOCH          = 2026-02-06T13:48:24.454656
MEAN_MOTION    = 14.54985479
ECCENTRICITY   = .00475764
INCLINATION    = 98.6845
RA_OF_ASC_NODE = 31.2682
ARG_OF_PERICENTER = 327.9345
MEAN_ANOMALY   = 31.8958

EPHEMERIS_TYPE = 0
CLASSIFICATION_TYPE = U
NORAD_CAT_ID   = 28059
ELEMENT_SET_NO = 999
REV_AT_EPOCH   = 18207
BSTAR          = .17480802E-3
MEAN_MOTION_DOT = .712E-5
MEAN_MOTION_DDOT = 0

CCSDS_OMM_VERS = 2.0
CREATION_DATE  = 
ORIGINATOR     = 

OBJECT_NAME    = CZ-2C R/B
OBJECT_ID      = 2004-012C
CENTER_NAME    = EARTH
REF_FRAME      = TEME
TIME_SYSTEM    = UTC
MEAN_ELEMENT_THEORY = SGP/SGP4

EPOCH          = 2026-02-06T14:46:33.405024
MEAN_MOTION    = 15.60987787
ECCENTRICITY   = .00162174
INCLINATION    = 97.7305
RA_OF_ASC_NODE = 100.0425
ARG_OF_PERICENTER = 67.4136
MEAN_ANOMALY   = 292.8835

EPHEMERIS_TYPE = 0
CLASSIFICATION_TYPE = U
NORAD_CAT_ID   = 28222
ELEMENT_SET_NO = 999
REV_AT_EPOCH   = 19942
BSTAR          = .69887691E-3
MEAN_MOTION_DOT = .59196E-3
MEAN_MOTION_DDOT = 0

CCSDS_OMM_VERS = 2.0
CREATION_DATE  = 
ORIGINATOR     = 

OBJECT_NAME    = SL-16 R/B
OBJECT_ID      = 2004-021B
CENTER_NAME    = EARTH
REF_FRAME      = TEME
TIME_SYSTEM    = UTC
MEAN_ELEMENT_THEORY = SGP/SGP4

EPOCH          = 2026-02-06T03:09:05.604768
MEAN_MOTION    = 14.14589375
ECCENTRICITY   = .00028573
INCLINATION    = 71.0004
RA_OF_ASC_NODE = 298.7234
ARG_OF_PERICENTER = 88.7524
MEAN_ANOMALY   = 271.3926

EPHEMERIS_TYPE = 0
CLASSIFICATION_TYPE = U
NORAD_CAT_ID   = 28353
ELEMENT_SET_NO = 999
REV_AT_EPOCH   = 11837
BSTAR          = .39421774E-4
MEAN_MOTION_DOT = .28E-6
MEAN_MOTION_DDOT = 0

CCSDS_OMM_VERS = 2.0
CREATION_DATE  = 
ORIGINATOR     = 

OBJECT_NAME    = CZ-4B R/B
OBJECT_ID      = 2004-035C
CENTER_NAME    = EARTH
REF_FRAME      = TEME
TIME_SYSTEM    = UTC
MEAN_ELEMENT_THEORY = SGP/SGP4

EPOCH          = 2026-02-06T14:55:47.859744
MEAN_MOTION    = 15.28487215
ECCENTRICITY   = .00342342
INCLINATION    = 97.3548
RA_OF_ASC_NODE = 72.2432
ARG_OF_PERICENTER = 79.7520
MEAN_ANOMALY   = 280.7578

EPHEMERIS_TYPE = 0
CLASSIFICATION_TYPE = U
NORAD_CAT_ID   = 28415
ELEMENT_SET_NO = 999
REV_AT_EPOCH   = 17516
BSTAR          = .37442733E-3
MEAN_MOTION_DOT = .10492E-3
MEAN_MOTION_DDOT = 0

CCSDS_OMM_VERS = 2.0
CREATION_DATE  = 
ORIGINATOR     = 

OBJECT_NAME    = CZ-2C R/B
OBJECT_ID      = 2004-046B
CENTER_NAME    = EARTH
REF_FRAME      = TEME
TIME_SYSTEM    = UTC
MEAN_ELEMENT_THEORY = SGP/SGP4

EPOCH          = 2026-02-06T15:11:47.190048
MEAN_MOTION    = 14.26980990
ECCENTRICITY   = .01382396
INCLINATION    = 98.1996
RA_OF_ASC_NODE = 314.5457
ARG_OF_PERICENTER = 246.5720
MEAN_ANOMALY   = 112.0876

EPHEMERIS_TYPE = 0
CLASSIFICATION_TYPE = U
NORAD_CAT_ID   = 28480
ELEMENT_SET_NO = 999
REV_AT_EPOCH   = 10407
BSTAR          = .98664975E-4
MEAN_MOTION_DOT = .223E-5
MEAN_MOTION_DDOT = 0

CCSDS_OMM_VERS = 2.0
CREATION_DATE  = 
ORIGINATOR     = 

OBJECT_NAME    = ARIANE 5 R/B
OBJECT_ID      = 2004-049H
CENTER_NAME    = EARTH
REF_FRAME      = TEME
TIME_SYSTEM    = UTC
MEAN_ELEMENT_THEORY = SGP/SGP4

EPOCH          = 2026-02-06T10:34:12.637920
MEAN_MOTION    = 14.85200840
ECCENTRICITY   = .00854948
INCLINATION    = 98.2576
RA_OF_ASC_NODE = 204.7395
ARG_OF_PERICENTER = 92.3626
MEAN_ANOMALY   = 268.7380

EPHEMERIS_TYPE = 0
CLASSIFICATION_TYPE = U
NORAD_CAT_ID   = 28499
ELEMENT_SET_NO = 999
REV_AT_EPOCH   = 14115
BSTAR          = .1666571E-3
MEAN_MOTION_DOT = .1461E-4
MEAN_MOTION_DDOT = 0

CCSDS_OMM_VERS = 2.0
CREATION_DATE  = 
ORIGINATOR     = 

OBJECT_NAME    = CZ-2D R/B
OBJECT_ID      = 2005-024B
CENTER_NAME    = EARTH
REF_FRAME      = TEME
TIME_SYSTEM    = UTC
MEAN_ELEMENT_THEORY = SGP/SGP4

EPOCH          = 2026-02-06T13:45:36.995904
MEAN_MOTION    = 15.57431347
ECCENTRICITY   = .00073025
INCLINATION    = 97.3617
RA_OF_ASC_NODE = 51.6447
ARG_OF_PERICENTER = 121.7841
MEAN_ANOMALY   = 238.4127

EPHEMERIS_TYPE = 0
CLASSIFICATION_TYPE = U
NORAD_CAT_ID   = 28738
ELEMENT_SET_NO = 999
REV_AT_EPOCH   = 13493
BSTAR          = .60489231E-3
MEAN_MOTION_DOT = .44477E-3
MEAN_MOTION_DDOT = 0

