IDEFIX & ARIANE 42P R/B 
1 27422U 02021B   26037.66092261  .00000437  00000+0  18286-3 0  9993
2 27422  98.5840 336.6444 0010718 280.7661  79.2315 14.31003452239587
AQUA                    
1 27424U 02022A   26037.62073028  .00001535  00000+0  31665-3 0  9998
2 27424  98.4120   4.4338 0001586  54.7719  54.8969 14.61898931264193
CZ-4B R/B               
1 27432U 02024C   26037.67689469  .00000056  00000+0  51554-4 0  9993
2 27432  98.8906  91.2295 0051126 110.8267   0.9214 14.14542060224852
MIDORI II (ADEOS-II)    
1 27597U 02056A   26037.51131019  .00000481  00000+0  20716-3 0  9993
2 27597  98.7716 355.7851 0002158  86.6875 273.4553 14.29261081205842
H-2A R/B                
1 27601U 02056E   26037.52211925  .00000462  00000+0  17686-3 0  9996
2 27601  98.3147 359.0853 0069012 254.3260 217.3077 14.33738209209641
CZ-4B R/B               
1 28059U 03049C   26037.57528304  .00000712  00000+0  17481-3 0  9995
2 28059  98.6845  31.2682 0047576 327.9345  31.8958 14.54985479182078
CZ-2C R/B               
1 28222U 04012C   26037.61566441  .00059196  00000+0  69888-3 0  9995
2 28222  97.7305 100.0425 0016217  67.4136 292.8835 15.60987787199425
SL-16 R/B               
1 28353U 04021B   26037.13131487  .00000028  00000+0  39422-4 0  9997
2 28353  71.0004 298.7234 0002857  88.7524 271.3926 14.14589375118373
CZ-4B R/B               
1 28415U 04035C   26037.62208171  .00010492  00000+0  37443-3 0  9996
2 28415  97.3548  72.2432 0034234  79.7520 280.7578 15.28487215175164
CZ-2C R/B               
1 28480U 04046B   26037.63318507  .00000223  00000+0  98665-4 0  9991
2 28480  98.1996 314.5457 0138239 246.5720 112.0876 14.26980990104072
ARIANE 5 R/B            
1 28499U 04049H   26037.44042405  .00001461  00000+0  16666-3 0  9999
2 28499  98.2576 204.7395 0085494  92.3626 268.7380 14.85200840141157
CZ-2D R/B               
1 28738U 05024B   26037.57334486  .00044477  00000+0  60489-3 0  9992
2 28738  97.3617  51.6447 0007302 121.7841 238.4127 15.57431347134933
